OBJECT_NAME,OBJECT_ID,EPOCH,MEAN_MOTION,ECCENTRICITY,INCLINATION,RA_OF_ASC_NODE,ARG_OF_PERICENTER,MEAN_ANOMALY,EPHEMERIS_TYPE,CLASSIFICATION_TYPE,NORAD_CAT_ID,ELEMENT_SET_NO,REV_AT_EPOCH,BSTAR,MEAN_MOTION_DOT,MEAN_MOTION_DDOT
INTELSAT 21 (IS-21),2012-045A,2026-06-16T17:52:20.091072,1.00270268,.0001331,0.0122,9.4182,96.2317,9.4402,0,U,38749,999,5052,0,-.287E-5,0
ASTRA 2F,2012-051A,2026-06-16T18:16:52.891392,1.00269613,.0001471,0.0638,257.4169,282.9965,27.0094,0,U,38778,999,4113,0,.147E-5,0
GSAT-10,2012-051B,2026-06-16T23:40:31.541088,1.00269889,.00078,0.0809,262.5780,184.8512,255.9545,0,U,38779,999,5009,0,-.168E-5,0
INTELSAT 23 (IS-23),2012-057A,2026-06-16T11:37:38.722944,1.00268351,.00002061,0.0177,305.1566,51.2003,29.8210,0,U,38867,999,4994,0,-.286E-5,0
BEIDOU-2 G6,2012-059A,2026-06-16T17:43:14.571840,1.00272017,.0009587,4.4198,73.5241,324.3071,217.0195,0,U,38953,999,4990,0,-.181E-5,0
LUCH-5B,2012-061A,2026-06-15T23:14:56.884416,1.00272153,.00025217,10.4794,49.8909,151.7333,35.0817,0,U,38977,999,4959,0,-.144E-5,0
YAMAL 300K,2012-061B,2026-06-16T19:00:58.869792,1.00267966,.0001474,0.0160,0.7389,250.0147,122.4987,0,U,38978,999,4962,0,0,0
STAR ONE C3,2012-062A,2026-06-16T12:39:26.356896,1.00270938,.0002156,0.0151,315.3164,143.3654,280.9889,0,U,38991,999,4975,0,-.251E-5,0
EUTELSAT 21B,2012-062B,2026-06-16T16:32:20.774112,1.00275053,.0003101,0.0668,343.5604,100.5678,90.5298,0,U,38992,999,4982,0,.128E-5,0
ECHOSTAR 16,2012-065A,2026-06-16T17:51:20.187360,1.00273788,.0001931,0.0180,27.9150,61.4112,22.0141,0,U,39008,999,4964,0,-.284E-5,0
ZHONGXING-12,2012-067A,2026-06-16T15:08:33.349920,1.00271880,.0002757,0.0381,87.1368,349.6745,142.7178,0,U,39017,999,4950,0,-.209E-5,0
EUTELSAT 70B,2012-069A,2026-06-16T22:43:12.605088,1.00271606,.000394,0.0647,15.1100,63.1008,238.2858,0,U,39020,999,4950,0,-.46E-6,0
YAMAL 402,2012-070A,2026-06-16T23:32:28.612608,1.00271258,.000364,1.2652,84.1608,1.1878,227.9056,0,U,39022,999,4939,0,.82E-6,0
SKYNET 5D,2012-075A,2026-06-16T22:20:56.473152,1.00270183,.000347,0.0664,349.7779,104.1029,199.3174,0,U,39034,999,4915,0,.96E-6,0
MEXSAT 3,2012-075B,2026-06-16T15:53:24.507744,1.00268441,.0001144,0.0212,67.3388,7.7179,313.4111,0,U,39035,999,704,0,-.27E-6,0
TDRS 11,2013-004A,2026-06-16T17:15:23.310720,1.00269323,.0005472,3.5200,31.2527,20.3755,297.7909,0,U,39070,999,4668,0,.75E-6,0
AMAZONAS 3,2013-006A,2026-06-17T03:23:49.926048,1.00272367,.000188,0.0408,204.1051,287.0757,124.1793,0,U,39078,999,4491,0,-.286E-5,0
AZERSPACE 1,2013-006B,2026-06-16T18:21:59.899104,1.00269773,.0001227,0.0158,18.5405,96.8931,111.0760,0,U,39079,999,4880,0,.131E-5,0
SBIRS GEO-2 (USA 241),2013-011A,2026-06-16T12:46:38.153856,1.00271508,.0002146,4.4880,52.5086,25.8111,328.3373,0,U,39120,999,4852,0,-.291E-5,0
EUTELSAT 117 WEST A,2013-012A,2026-06-17T04:34:57.532224,1.00271239,.0002657,0.0157,17.0390,68.4957,131.8446,0,U,39122,999,4843,0,-.17E-6,0
ANIK G1,2013-014A,2026-06-16T15:55:39.294336,1.00270713,.000149,0.0171,15.1042,62.5023,318.9179,0,U,39127,999,4824,0,-.76E-6,0
ZHONGXING-11,2013-020A,2026-06-16T10:03:28.137024,1.00269394,.00019789,0.0552,63.7791,14.4352,75.2478,0,U,39157,999,4789,0,-.291E-5,0
EUTELSAT 7B,2013-022A,2026-06-16T18:10:53.163264,1.00273244,.0004717,0.0649,349.6898,45.7525,149.3158,0,U,39163,999,4794,0,.46E-6,0
WGS F5 (USA 243),2013-024A,2026-06-16T12:45:53.224992,1.00269544,.0000254,0.0215,3.2089,301.0155,99.5434,0,U,39168,999,4716,0,0,0
SES-6,2013-026A,2026-06-16T16:14:29.986080,1.00269434,.0002488,0.0189,16.1964,84.8715,6.9840,0,U,39172,999,4772,0,-.264E-5,0
IRNSS-1A,2013-034A,2026-06-09T14:20:49.169184,1.00272948,.00174117,35.7049,63.9797,184.2474,279.8453,0,U,39199,999,4729,0,.7E-6,0
MUOS-2,2013-036A,2026-06-16T12:07:17.684256,1.00273074,.0050984,4.9938,45.5307,177.5124,35.5103,0,U,39206,999,4718,0,-.17E-6,0
ALPHASAT,2013-038A,2026-06-16T02:52:00.515424,1.00275002,.00017758,2.9985,1.3330,89.1434,241.7746,0,U,39215,999,4400,0,.132E-5,0
INSAT-3D,2013-038B,2026-06-16T18:45:45.328032,1.00269313,.000056,1.9255,82.5442,311.3198,282.1305,0,U,39216,999,4707,0,-.343E-5,0
WGS F6 (USA 244),2013-041A,2026-06-17T03:17:14.263296,1.00270818,.0000216,0.0176,6.4480,298.9238,234.1355,0,U,39222,999,4606,0,.85E-6,0
ES'HAIL 1,2013-044A,2026-06-16T18:16:07.963392,1.00273500,.0002117,0.0481,345.9203,95.3667,123.2661,0,U,39233,999,4662,0,.141E-5,0
GSAT-7,2013-044B,2026-06-16T22:47:58.971840,1.00270402,.0003144,0.0837,94.0950,190.3492,36.7274,0,U,39234,999,4525,0,-.8E-6,0
