INTELSAT 21 (IS-21)     
1 38749U 12045A   26167.74467698 -.00000287  00000+0  00000+0 0  9992
2 38749   0.0122   9.4182 0001331  96.2317   9.4402  1.00270268 50525
ASTRA 2F                
1 38778U 12051A   26167.76172328  .00000147  00000+0  00000+0 0  9990
2 38778   0.0638 257.4169 0001471 282.9965  27.0094  1.00269613 41139
GSAT-10                 
1 38779U 12051B   26167.98647617 -.00000168  00000+0  00000+0 0  9997
2 38779   0.0809 262.5780 0007800 184.8512 255.9545  1.00269889 50099
INTELSAT 23 (IS-23)     
1 38867U 12057A   26167.48447596 -.00000286  00000+0  00000+0 0  9991
2 38867   0.0177 305.1566 0000206  51.2003  29.8210  1.00268351 49948
BEIDOU-2 G6             
1 38953U 12059A   26167.73836310 -.00000181  00000+0  00000+0 0  9997
2 38953   4.4198  73.5241 0009587 324.3071 217.0195  1.00272017 49904
LUCH-5B                 
1 38977U 12061A   26166.96871394 -.00000144  00000+0  00000+0 0  9990
2 38977  10.4794  49.8909 0002521 151.7333  35.0817  1.00272153 49595
YAMAL 300K              
1 38978U 12061B   26167.79234803  .00000000  00000+0  00000+0 0  9991
2 38978   0.0160   0.7389 0001474 250.0147 122.4987  1.00267966 49627
STAR ONE C3             
1 38991U 12062A   26167.52738839 -.00000251  00000+0  00000+0 0  9995
2 38991   0.0151 315.3164 0002156 143.3654 280.9889  1.00270938 49751
EUTELSAT 21B            
1 38992U 12062B   26167.68912933  .00000128  00000+0  00000+0 0  9994
2 38992   0.0668 343.5604 0003101 100.5678  90.5298  1.00275053 49829
ECHOSTAR 16             
1 39008U 12065A   26167.74398365 -.00000284  00000+0  00000+0 0  9994
2 39008   0.0180  27.9150 0001931  61.4112  22.0141  1.00273788 49643
ZHONGXING-12            
1 39017U 12067A   26167.63094155 -.00000209  00000+0  00000+0 0  9991
2 39017   0.0381  87.1368 0002757 349.6745 142.7178  1.00271880 49501
EUTELSAT 70B            
1 39020U 12069A   26167.94667367 -.00000046  00000+0  00000+0 0  9991
2 39020   0.0647  15.1100 0003940  63.1008 238.2858  1.00271606 49502
YAMAL 402               
1 39022U 12070A   26167.98088672  .00000082  00000+0  00000+0 0  9994
2 39022   1.2652  84.1608 0003640   1.1878 227.9056  1.00271258 49391
SKYNET 5D               
1 39034U 12075A   26167.93120918  .00000096  00000+0  00000+0 0  9992
2 39034   0.0664 349.7779 0003470 104.1029 199.3174  1.00270183 49159
MEXSAT 3                
1 39035U 12075B   26167.66208921 -.00000027  00000+0  00000+0 0  9999
2 39035   0.0212  67.3388 0001144   7.7179 313.4111  1.00268441  7044
TDRS 11                 
1 39070U 13004A   26167.71901980  .00000075  00000+0  00000+0 0  9994
2 39070   3.5200  31.2527 0005472  20.3755 297.7909  1.00269323 46684
AMAZONAS 3              
1 39078U 13006A   26168.14155007 -.00000286  00000+0  00000+0 0  9998
2 39078   0.0408 204.1051 0001880 287.0757 124.1793  1.00272367 44910
AZERSPACE 1             
1 39079U 13006B   26167.76527661  .00000131  00000+0  00000+0 0  9993
2 39079   0.0158  18.5405 0001227  96.8931 111.0760  1.00269773 48806
SBIRS GEO-2 (USA 241)   
1 39120U 13011A   26167.53238604 -.00000291  00000+0  00000+0 0  9995
2 39120   4.4880  52.5086 0002146  25.8111 328.3373  1.00271508 48520
EUTELSAT 117 WEST A     
1 39122U 13012A   26168.19094366 -.00000017  00000+0  00000+0 0  9992
2 39122   0.0157  17.0390 0002657  68.4957 131.8446  1.00271239 48432
ANIK G1                 
1 39127U 13014A   26167.66364924 -.00000076  00000+0  00000+0 0  9995
2 39127   0.0171  15.1042 0001490  62.5023 318.9179  1.00270713 48245
ZHONGXING-11            
1 39157U 13020A   26167.41907566 -.00000291  00000+0  00000+0 0  9992
2 39157   0.0552  63.7791 0001978  14.4352  75.2478  1.00269394 47891
EUTELSAT 7B             
1 39163U 13022A   26167.75755976  .00000046  00000+0  00000+0 0  9991
2 39163   0.0649 349.6898 0004717  45.7525 149.3158  1.00273244 47945
WGS F5 (USA 243)        
1 39168U 13024A   26167.53186603  .00000000  00000+0  00000+0 0  9999
2 39168   0.0215   3.2089 0000254 301.0155  99.5434  1.00269544 47168
SES-6                   
1 39172U 13026A   26167.67673595 -.00000264  00000+0  00000+0 0  9995
2 39172   0.0189  16.1964 0002488  84.8715   6.9840  1.00269434 47720
IRNSS-1A                
1 39199U 13034A   26160.59779131  .00000070  00000+0  00000+0 0  9994
2 39199  35.7049  63.9797 0017411 184.2474 279.8453  1.00272948 47299
MUOS-2                  
1 39206U 13036A   26167.50506579 -.00000017  00000+0  00000+0 0  9999
2 39206   4.9938  45.5307 0050984 177.5124  35.5103  1.00273074 47183
ALPHASAT                
1 39215U 13038A   26167.11945041  .00000132  00000+0  00000+0 0  9996
2 39215   2.9985   1.3330 0001775  89.1434 241.7746  1.00275002 44000
INSAT-3D                
1 39216U 13038B   26167.78177463 -.00000343  00000+0  00000+0 0  9990
2 39216   1.9255  82.5442 0000560 311.3198 282.1305  1.00269313 47071
WGS F6 (USA 244)        
1 39222U 13041A   26168.13697064  .00000085  00000+0  00000+0 0  9997
2 39222   0.0176   6.4480 0000216 298.9238 234.1355  1.00270818 46062
ES'HAIL 1               
1 39233U 13044A   26167.76120328  .00000141  00000+0  00000+0 0  9997
2 39233   0.0481 345.9203 0002117  95.3667 123.2661  1.00273500 46625
GSAT-7                  
1 39234U 13044B   26167.94998810 -.00000080  00000+0  00000+0 0  9990
2 39234   0.0837  94.0950 0003144 190.3492  36.7274  1.00270402 45259
